NAVSTAR 77 (USA 289)    
1 43873U 18109A   24032.42486014  .00000001  00000+0  00000+0 0  9993
2 43873  55.2443 126.4336 0028643 193.1229 128.9602  2.00573581 37633
